{
  "type": "FeatureCollection",
  "features": [
    {
      "type": "Feature",
      "properties": {
        "norad_id": 30494,
        "name": "FENGYUN 1C DEB",
        "group": "fengyun-1c-debris",
        "lat": -36.128170533143134,
        "lon": -163.63820163949194,
        "alt_km": 835.9599848989674,
        "timestamp": "2025-12-13T20:38:51.281779+00:00",
        "meta_object_name": "FENGYUN 1C DEB",
        "meta_object_id": "1999-025AHG",
        "meta_epoch": "2025-12-11T13:37:35.489568",
        "meta_mean_motion": 13.79365167,
        "meta_eccentricity": 0.01858349,
        "meta_inclination": 99.2831,
        "meta_ra_of_asc_node": 20.9711,
        "meta_arg_of_pericenter": 225.3036,
        "meta_mean_anomaly": 133.2851,
        "meta_ephemeris_type": 0,
        "meta_classification_type": "U",
        "meta_norad_cat_id": 30494,
        "meta_element_set_no": 999,
        "meta_rev_at_epoch": 94470,
        "meta_bstar": 0.0020143048,
        "meta_mean_motion_dot": 2.311e-05,
        "meta_mean_motion_ddot": 0,
        "tle_line1": "1 30494U 99025AHG 25345.56777187  .00002311  00000+0  20143-2 0  9990",
        "tle_line2": "2 30494  99.2831  20.9711 0185834 225.3036 133.2851 13.79365167944709"
      },
      "geometry": {
        "type": "Point",
        "coordinates": [
          -163.63820163949194,
          -36.128170533143134
        ]
      }
    },
    {
      "type": "Feature",
      "properties": {
        "norad_id": 30495,
        "name": "FENGYUN 1C DEB",
        "group": "fengyun-1c-debris",
        "lat": -44.84462410454111,
        "lon": -115.71935854424011,
        "alt_km": 921.3406923803359,
        "timestamp": "2025-12-13T20:38:51.281789+00:00",
        "meta_object_name": "FENGYUN 1C DEB",
        "meta_object_id": "1999-025AHH",
        "meta_epoch": "2025-12-13T04:35:13.209504",
        "meta_mean_motion": 12.94389076,
        "meta_eccentricity": 0.05970498,
        "meta_inclination": 102.2604,
        "meta_ra_of_asc_node": 76.0205,
        "meta_arg_of_pericenter": 265.7335,
        "meta_mean_anomaly": 87.5352,
        "meta_ephemeris_type": 0,
        "meta_classification_type": "U",
        "meta_norad_cat_id": 30495,
        "meta_element_set_no": 999,
        "meta_rev_at_epoch": 88679,
        "meta_bstar": 0.0045593872,
        "meta_mean_motion_dot": 2.8e-05,
        "meta_mean_motion_ddot": 0,
        "tle_line1": "1 30495U 99025AHH 25347.19112511  .00002800  00000+0  45594-2 0  9996",
        "tle_line2": "2 30495 102.2604  76.0205 0597049 265.7335  87.5352 12.94389076886790"
      },
      "geometry": {
        "type": "Point",
        "coordinates": [
          -115.71935854424011,
          -44.84462410454111
        ]
      }
    },
    {
      "type": "Feature",
      "properties": {
        "norad_id": 30496,
        "name": "FENGYUN 1C DEB",
        "group": "fengyun-1c-debris",
        "lat": -10.394793727791953,
        "lon": 72.20765921767024,
        "alt_km": 598.1058521329196,
        "timestamp": "2025-12-13T20:38:51.281800+00:00",
        "meta_object_name": "FENGYUN 1C DEB",
        "meta_object_id": "1999-025AHJ",
        "meta_epoch": "2025-12-12T16:29:26.516544",
        "meta_mean_motion": 14.9425938,
        "meta_eccentricity": 0.01304047,
        "meta_inclination": 98.7828,
        "meta_ra_of_asc_node": 252.5214,
        "meta_arg_of_pericenter": 97.603,
        "meta_mean_anomaly": 264.002,
        "meta_ephemeris_type": 0,
        "meta_classification_type": "U",
        "meta_norad_cat_id": 30496,
        "meta_element_set_no": 999,
        "meta_rev_at_epoch": 1143,
        "meta_bstar": 0.00086125997,
        "meta_mean_motion_dot": 0.00010875,
        "meta_mean_motion_ddot": 0,
        "tle_line1": "1 30496U 99025AHJ 25346.68711246  .00010875  00000+0  86126-3 0  9998",
        "tle_line2": "2 30496  98.7828 252.5214 0130404  97.6030 264.0020 14.94259380 11432"
      },
      "geometry": {
        "type": "Point",
        "coordinates": [
          72.20765921767024,
          -10.394793727791953
        ]
      }
    },
    {
      "type": "Feature",
      "properties": {
        "norad_id": 30498,
        "name": "FENGYUN 1C DEB",
        "group": "fengyun-1c-debris",
        "lat": -44.95476589201057,
        "lon": 48.35914775001748,
        "alt_km": 951.4187600713058,
        "timestamp": "2025-12-13T20:38:51.281815+00:00",
        "meta_object_name": "FENGYUN 1C DEB",
        "meta_object_id": "1999-025AHL",
        "meta_epoch": "2025-12-12T21:47:13.811136",
        "meta_mean_motion": 14.06064864,
        "meta_eccentricity": 0.01046513,
        "meta_inclination": 99.2374,
        "meta_ra_of_asc_node": 38.037,
        "meta_arg_of_pericenter": 155.4201,
        "meta_mean_anomaly": 19.7137,
        "meta_ephemeris_type": 0,
        "meta_classification_type": "U",
        "meta_norad_cat_id": 30498,
        "meta_element_set_no": 999,
        "meta_rev_at_epoch": 95771,
        "meta_bstar": 0.0027851471,
        "meta_mean_motion_dot": 4.76e-05,
        "meta_mean_motion_ddot": 0,
        "tle_line1": "1 30498U 99025AHL 25346.90779874  .00004760  00000+0  27851-2 0  9991",
        "tle_line2": "2 30498  99.2374  38.0370 0104651 155.4201  19.7137 14.06064864957712"
      },
      "geometry": {
        "type": "Point",
        "coordinates": [
          48.35914775001748,
          -44.95476589201057
        ]
      }
    },
    {
      "type": "Feature",
      "properties": {
        "norad_id": 30500,
        "name": "FENGYUN 1C DEB",
        "group": "fengyun-1c-debris",
        "lat": -68.91306665527588,
        "lon": -125.08937067775481,
        "alt_km": 849.3076332637402,
        "timestamp": "2025-12-13T20:38:51.281826+00:00",
        "meta_object_name": "FENGYUN 1C DEB",
        "meta_object_id": "1999-025AHN",
        "meta_epoch": "2025-12-12T04:52:03.720576",
        "meta_mean_motion": 14.25186793,
        "meta_eccentricity": 0.00648229,
        "meta_inclination": 99.0723,
        "meta_ra_of_asc_node": 77.6767,
        "meta_arg_of_pericenter": 117.8824,
        "meta_mean_anomaly": 273.0615,
        "meta_ephemeris_type": 0,
        "meta_classification_type": "U",
        "meta_norad_cat_id": 30500,
        "meta_element_set_no": 999,
        "meta_rev_at_epoch": 96674,
        "meta_bstar": 0.0041433504,
        "meta_mean_motion_dot": 9.916e-05,
        "meta_mean_motion_ddot": 0,
        "tle_line1": "1 30500U 99025AHN 25346.20282084  .00009916  00000+0  41434-2 0  9991",
        "tle_line2": "2 30500  99.0723  77.6767 0064822 117.8824 273.0615 14.25186793966745"
      },
      "geometry": {
        "type": "Point",
        "coordinates": [
          -125.08937067775481,
          -68.91306665527588
        ]
      }
    },
    {
      "type": "Feature",
      "properties": {
        "norad_id": 30501,
        "name": "FENGYUN 1C DEB",
        "group": "fengyun-1c-debris",
        "lat": -17.96749951157726,
        "lon": 155.73039671597343,
        "alt_km": 783.05893717036,
        "timestamp": "2025-12-13T20:38:51.281836+00:00",
        "meta_object_name": "FENGYUN 1C DEB",
        "meta_object_id": "1999-025AHP",
        "meta_epoch": "2025-12-11T22:22:20.143776",
        "meta_mean_motion": 14.25330893,
        "meta_eccentricity": 0.004061,
        "meta_inclination": 99.0845,
        "meta_ra_of_asc_node": 336.7088,
        "meta_arg_of_pericenter": 205.1912,
        "meta_mean_anomaly": 184.7235,
        "meta_ephemeris_type": 0,
        "meta_classification_type": "U",
        "meta_norad_cat_id": 30501,
        "meta_element_set_no": 999,
        "meta_rev_at_epoch": 96908,
        "meta_bstar": 0.0025286,
        "meta_mean_motion_dot": 5.965e-05,
        "meta_mean_motion_ddot": 0,
        "tle_line1": "1 30501U 99025AHP 25345.93217759  .00005965  00000+0  25286-2 0  9995",
        "tle_line2": "2 30501  99.0845 336.7088 0040610 205.1912 184.7235 14.25330893969082"
      },
      "geometry": {
        "type": "Point",
        "coordinates": [
          155.73039671597343,
          -17.96749951157726
        ]
      }
    },
    {
      "type": "Feature",
      "properties": {
        "norad_id": 30503,
        "name": "FENGYUN 1C DEB",
        "group": "fengyun-1c-debris",
        "lat": 16.593893033838864,
        "lon": -171.3526661029163,
        "alt_km": 841.3786053729455,
        "timestamp": "2025-12-13T20:38:51.281846+00:00",
        "meta_object_name": "FENGYUN 1C DEB",
        "meta_object_id": "1999-025AHR",
        "meta_epoch": "2025-12-13T07:49:33.750048",
        "meta_mean_motion": 14.16126109,
        "meta_eccentricity": 0.00082831,
        "meta_inclination": 99.2044,
        "meta_ra_of_asc_node": 190.8651,
        "meta_arg_of_pericenter": 264.8278,
        "meta_mean_anomaly": 269.9796,
        "meta_ephemeris_type": 0,
        "meta_classification_type": "U",
        "meta_norad_cat_id": 30503,
        "meta_element_set_no": 999,
        "meta_rev_at_epoch": 97354,
        "meta_bstar": 0.0004095134,
        "meta_mean_motion_dot": 7.62e-06,
        "meta_mean_motion_ddot": 0,
        "tle_line1": "1 30503U 99025AHR 25347.32608507  .00000762  00000+0  40951-3 0  9994",
        "tle_line2": "2 30503  99.2044 190.8651 0008283 264.8278 269.9796 14.16126109973546"
      },
      "geometry": {
        "type": "Point",
        "coordinates": [
          -171.3526661029163,
          16.593893033838864
        ]
      }
    }
  ]
}